OBJECT_NAME,OBJECT_ID,EPOCH,MEAN_MOTION,ECCENTRICITY,INCLINATION,RA_OF_ASC_NODE,ARG_OF_PERICENTER,MEAN_ANOMALY,EPHEMERIS_TYPE,CLASSIFICATION_TYPE,NORAD_CAT_ID,ELEMENT_SET_NO,REV_AT_EPOCH,BSTAR,MEAN_MOTION_DOT,MEAN_MOTION_DDOT
JILIN-1 07,2018-008E,2026-07-13T15:01:17.114592,15.35147872,.00068834,97.1763,213.8555,334.7521,25.3385,0,U,43159,999,46905,.153741E-3,.517E-4,0
JILIN-1 08,2018-008F,2026-07-13T13:54:30.700800,15.33998839,.00055053,97.1800,213.0971,358.9299,1.1931,0,U,43160,999,46899,.11088955E-3,.3572E-4,0
S-NET D,2018-014G,2026-07-13T15:38:59.488224,15.16909537,.00063446,97.5338,99.2786,291.6069,68.4488,0,U,43186,999,46277,.13248575E-3,.2544E-4,0
S-NET B,2018-014H,2026-07-13T12:46:14.950272,15.16878568,.00069174,97.5343,99.1469,285.8591,74.1880,0,U,43187,999,46275,.14045914E-3,.2699E-4,0
S-NET A,2018-014J,2026-07-13T15:37:09.867360,15.16917967,.00068205,97.5354,99.4787,286.4267,73.6217,0,U,43188,999,46277,.13292104E-3,.2553E-4,0
S-NET C,2018-014K,2026-07-13T14:27:01.525536,15.16870435,.00081477,97.5372,99.5092,277.0729,82.9577,0,U,43189,999,46131,.14407602E-3,.277E-4,0
PAZ,2018-020A,2026-07-13T14:03:55.630656,15.19154327,.00016946,97.4454,201.5967,89.6506,270.4923,0,U,43215,999,46501,.50171636E-4,.987E-5,0
GOES 17,2018-022A,2026-07-13T14:45:02.606400,1.00271265,.00005303,1.0025,85.2818,85.2007,252.7733,0,U,43226,999,3068,0,-.188E-5,0
LKW-4,2018-025A,2026-07-13T12:20:50.369568,15.64422776,.00033016,97.6344,7.4963,188.1552,171.9654,0,U,43236,999,46414,.31789911E-3,.30413E-3,0
ZHUHAI-1 OVS-02,2018-040B,2026-07-13T14:32:21.579648,15.25363942,.00049206,97.0380,210.2729,139.2308,220.9300,0,U,43440,999,45674,.16455264E-3,.4085E-4,0
ZHUHAI-1 OHS-02,2018-040C,2026-07-13T15:23:36.033792,15.26253161,.00110896,97.0360,217.2723,129.9263,230.2952,0,U,43441,999,11831,.17095747E-3,.4369E-4,0
GAOFEN-6,2018-048A,2026-07-13T15:18:14.307840,14.76383220,.0012152,98.0966,257.3358,86.1014,274.1584,0,U,43484,999,43729,.72348524E-4,.451E-5,0
LUOJIA-1 01,2018-048B,2026-07-13T14:43:35.585184,14.87376504,.00098908,97.8104,272.3773,42.0348,318.1626,0,U,43485,999,43814,.75254924E-4,.626E-5,0
PAKTES 1A,2018-056A,2026-07-13T13:39:53.179200,14.99201183,.00199564,98.1282,352.1817,24.8995,335.3185,0,U,43529,999,43587,.10766397E-3,.125E-4,0
PRSS-1,2018-056B,2026-07-13T15:45:33.962112,14.82026264,.00012874,97.7816,261.7923,83.8702,276.2658,0,U,43530,999,43235,.20182739E-4,.109E-5,0
HAIYANG-1C,2018-068A,2026-07-13T13:07:28.285824,14.34186740,.00112891,98.5189,266.4726,23.1161,337.0529,0,U,43609,999,41086,.79609821E-4,.18E-5,0
SSTL S1-4,2018-071A,2026-07-13T15:20:06.453312,14.96200996,.0002069,97.4997,65.1482,98.3640,261.7817,0,U,43618,999,42689,.31624363E-4,.302E-5,0
HAIYANG-2B,2018-081A,2026-07-13T15:21:04.311936,13.79306395,.00007993,99.3288,202.9965,148.1998,211.9202,0,U,43655,999,38857,-.5995284E-5,-.5E-6,0
CFOSAT,2018-083A,2026-07-13T14:52:40.969632,15.16529899,.00018896,97.3615,198.3743,75.9006,284.2437,0,U,43662,999,42644,.95347083E-4,.1794E-4,0
TEN-KOH,2018-084G,2026-07-13T11:42:01.867968,15.03040122,.00099426,98.0755,27.9569,35.2579,324.9301,0,U,43677,999,42011,.1421685E-3,.185E-4,0
DIWATA-2B,2018-084H,2026-07-13T13:51:12.856896,15.00559878,.00129229,98.1217,31.9412,89.3965,270.8738,0,U,43678,999,42017,.10502862E-3,.1261E-4,0
STARS-AO,2018-084J,2026-07-13T12:29:30.884640,15.17334247,.00036692,98.0475,50.1168,84.0986,276.0664,0,U,43679,999,42146,.16172988E-3,.315E-4,0
AUTCUBE 2,2018-084K,2026-07-13T12:50:27.952800,15.10257806,.00079342,98.0691,42.1076,321.0065,39.0589,0,U,43681,999,42090,.13461347E-3,.2132E-4,0
METOP-C,2018-087A,2026-07-13T14:29:48.391584,14.21518772,.00022139,98.6631,253.7230,95.9364,264.2066,0,U,43689,999,39858,.41684015E-4,.48E-6,0
ES'HAIL 2,2018-090A,2026-07-13T13:35:15.132768,1.00270005,.00021441,0.0034,108.4151,50.9273,1.6930,0,U,43700,999,2794,0,.14E-5,0
MOHAMMED VI-B,2018-095A,2026-07-13T14:18:38.939328,14.77081097,.00017655,97.9555,266.5562,94.2540,265.8872,0,U,43717,999,41208,.71340415E-4,.453E-5,0
HYSIS,2018-096A,2026-07-13T14:28:17.908320,14.78667752,.00018559,97.9836,261.1422,84.5683,275.5740,0,U,43719,999,41132,.74204062E-4,.492E-5,0
COSMOS 2530 (RODNIK-S 16),2018-097A,2026-07-13T14:51:09.044352,12.42881913,.00190457,82.5121,205.8762,342.4750,17.5671,0,U,43751,999,34557,.13503448E-3,.29E-6,0
COSMOS 2531 (RODNIK-S 17),2018-097B,2026-07-13T15:22:17.198976,12.42912969,.00166681,82.5166,206.9302,2.4221,357.6937,0,U,43752,999,34559,-.3991719E-3,-.45E-6,0
