JILIN-1 07              
1 43159U 18008E   26194.62589253  .00005170  00000+0  15374-3 0  9996
2 43159  97.1763 213.8555 0006883 334.7521  25.3385 15.35147872469059
JILIN-1 08              
1 43160U 18008F   26194.57952200  .00003572  00000+0  11089-3 0  9991
2 43160  97.1800 213.0971 0005505 358.9299   1.1931 15.33998839468993
S-NET D                 
1 43186U 18014G   26194.65207741  .00002544  00000+0  13249-3 0  9996
2 43186  97.5338  99.2786 0006344 291.6069  68.4488 15.16909537462770
S-NET B                 
1 43187U 18014H   26194.53211748  .00002699  00000+0  14046-3 0  9993
2 43187  97.5343  99.1469 0006917 285.8591  74.1880 15.16878568462752
S-NET A                 
1 43188U 18014J   26194.65080865  .00002553  00000+0  13292-3 0  9992
2 43188  97.5354  99.4787 0006820 286.4267  73.6217 15.16917967462778
S-NET C                 
1 43189U 18014K   26194.60210099  .00002770  00000+0  14408-3 0  9993
2 43189  97.5372  99.5092 0008147 277.0729  82.9577 15.16870435461311
PAZ                     
1 43215U 18020A   26194.58606054  .00000987  00000+0  50172-4 0  9994
2 43215  97.4454 201.5967 0001694  89.6506 270.4923 15.19154327465015
GOES 17                 
1 43226U 18022A   26194.61461350 -.00000188  00000+0  00000+0 0  9994
2 43226   1.0025  85.2818 0000530  85.2007 252.7733  1.00271265 30689
LKW-4                   
1 43236U 18025A   26194.51447187  .00030413  00000+0  31790-3 0  9996
2 43236  97.6344   7.4963 0003301 188.1552 171.9654 15.64422776464145
ZHUHAI-1 OVS-02         
1 43440U 18040B   26194.60580532  .00004085  00000+0  16455-3 0  9999
2 43440  97.0380 210.2729 0004920 139.2308 220.9300 15.25363942456740
ZHUHAI-1 OHS-02         
1 43441U 18040C   26194.64138928  .00004369  00000+0  17096-3 0  9999
2 43441  97.0360 217.2723 0011089 129.9263 230.2952 15.26253161118317
GAOFEN-6                
1 43484U 18048A   26194.63766560  .00000451  00000+0  72349-4 0  9993
2 43484  98.0966 257.3358 0012152  86.1014 274.1584 14.76383220437299
LUOJIA-1 01             
1 43485U 18048B   26194.61360631  .00000626  00000+0  75255-4 0  9994
2 43485  97.8104 272.3773 0009890  42.0348 318.1626 14.87376504438145
PAKTES 1A               
1 43529U 18056A   26194.56936550  .00001250  00000+0  10766-3 0  9994
2 43529  98.1282 352.1817 0019956  24.8995 335.3185 14.99201183435872
PRSS-1                  
1 43530U 18056B   26194.65664308  .00000109  00000+0  20183-4 0  9992
2 43530  97.7816 261.7923 0001287  83.8702 276.2658 14.82026264432359
HAIYANG-1C              
1 43609U 18068A   26194.54685516  .00000180  00000+0  79610-4 0  9992
2 43609  98.5189 266.4726 0011289  23.1161 337.0529 14.34186740410868
SSTL S1-4               
1 43618U 18071A   26194.63896358  .00000302  00000+0  31624-4 0  9993
2 43618  97.4997  65.1482 0002069  98.3640 261.7817 14.96200996426899
HAIYANG-2B              
1 43655U 18081A   26194.63963324 -.00000050  00000+0 -59953-5 0  9991
2 43655  99.3288 202.9965 0000799 148.1998 211.9202 13.79306395388576
CFOSAT                  
1 43662U 18083A   26194.61991863  .00001794  00000+0  95347-4 0  9998
2 43662  97.3615 198.3743 0001889  75.9006 284.2437 15.16529899426447
TEN-KOH                 
1 43677U 18084G   26194.48752162  .00001850  00000+0  14217-3 0  9996
2 43677  98.0755  27.9569 0009942  35.2579 324.9301 15.03040122420114
DIWATA-2B               
1 43678U 18084H   26194.57723214  .00001261  00000+0  10503-3 0  9993
2 43678  98.1217  31.9412 0012922  89.3965 270.8738 15.00559878420171
STARS-AO                
1 43679U 18084J   26194.52049635  .00003150  00000+0  16173-3 0  9995
2 43679  98.0475  50.1168 0003669  84.0986 276.0664 15.17334247421469
AUTCUBE 2               
1 43681U 18084K   26194.53504575  .00002132  00000+0  13461-3 0  9994
2 43681  98.0691  42.1076 0007934 321.0065  39.0589 15.10257806420901
METOP-C                 
1 43689U 18087A   26194.60403231  .00000048  00000+0  41684-4 0  9993
2 43689  98.6631 253.7230 0002213  95.9364 264.2066 14.21518772398588
ES'HAIL 2               
1 43700U 18090A   26194.56614737  .00000140  00000+0  00000+0 0  9996
2 43700   0.0034 108.4151 0002144  50.9273   1.6930  1.00270005 27946
MOHAMMED VI-B           
1 43717U 18095A   26194.59628402  .00000453  00000+0  71340-4 0  9993
2 43717  97.9555 266.5562 0001765  94.2540 265.8872 14.77081097412086
HYSIS                   
1 43719U 18096A   26194.60298505  .00000492  00000+0  74204-4 0  9990
2 43719  97.9836 261.1422 0001855  84.5683 275.5740 14.78667752411323
COSMOS 2530 (RODNIK-S *)
1 43751U 18097A   26194.61885468  .00000029  00000+0  13503-3 0  9998
2 43751  82.5121 205.8762 0019045 342.4750  17.5671 12.42881913345575
COSMOS 2531 (RODNIK-S *)
1 43752U 18097B   26194.64047684 -.00000045  00000+0 -39917-3 0  9999
2 43752  82.5166 206.9302 0016668   2.4221 357.6937 12.42912969345592
